*******************************************************************************
Ephemeris / WWW_USER Fri Mar  7 11:28:18 2025 Pasadena, USA      / Horizons    
*******************************************************************************
Target body name: (2018 UG3)                      {source: JPL#15}
Center body name: Earth (399)                     {source: DE441}
Center-site name: Mauna Kea
*******************************************************************************
Start time      : A.D. 2018-Aug-27 04:51:00.0000 UT      
Stop  time      : A.D. 2018-Aug-27 15:56:00.0000 UT      
Step-size       : 1 minutes
*******************************************************************************
Target pole/equ : undefined
Target radii    : undefined                                                    
Center geodetic : 204.5278, 19.8260847, 4.21024   {E-lon(deg),Lat(deg),Alt(km)}
Center cylindric: 204.5278, 6006.35451, 2151.0229 {E-lon(deg),Dxy(km),Dz(km)}
Center pole/equ : ITRF93                          {East-longitude positive}
Center radii    : 6378.137, 6378.137, 6356.752 km {Equator_a, b, pole_c}       
Target primary  : Sun
Vis. interferer : MOON (R_eq= 1737.400) km        {source: DE441}
Rel. light bend : Sun                             {source: DE441}
Rel. lght bnd GM: 1.3271E+11 km^3/s^2                                          
Small-body perts: Yes                             {source: SB441-N16}
Atmos refraction: NO (AIRLESS)
RA format       : HMS
Time format     : CAL 
Calendar mode   : Mixed Julian/Gregorian
RTS-only print  : NO       
EOP file        : eop.250306.p250602                                           
EOP coverage    : DATA-BASED 1962-JAN-20 TO 2025-MAR-06. PREDICTS-> 2025-JUN-01
Units conversion: 1 au= 149597870.700 km, c= 299792.458 km/s, 1 day= 86400.0 s 
Table cut-offs 1: Elevation (-90.0deg=NO ),Airmass (>38.000=NO), Daylight (YES)
Table cut-offs 2: Solar elongation (  0.0,180.0=NO ),Local Hour Angle( 0.0=NO )
Table cut-offs 3: RA/DEC angular rate (     0.0=NO )                           
*******************************************************************************
Initial IAU76/J2000 heliocentric ecliptic osculating elements (au, days, deg.):
  EPOCH=  2458429.5 ! 2018-Nov-07.00 (TDB)         Residual RMS= .46194        
   EC= .4227384440318329   QR= .9585039390071354   TP= 2458393.2526467689      
   OM= 47.27406359171053   W=  314.2704472892426   IN= 6.159551265235018       
  Equivalent ICRF heliocentric cartesian coordinates (au, au/d):
   X= 7.430529944075828E-01  Y= 6.714692173902916E-01  Z= 2.851295671149762E-01
  VX=-1.040372162305418E-02 VY= 1.447630012002514E-02 VZ= 8.505235531163944E-03
Asteroid physical parameters (km, seconds, rotational period in hours):        
   GM= n.a.                RAD= n.a.               ROTPER= n.a.                
   H= 24.5                 G= .150                 B-V= n.a.                   
                           ALBEDO= n.a.            STYP= n.a.                  
*******************************************************************************
 Date__(UT)__HR:MN     R.A._________(ICRF)_________DEC
******************************************************
$$SOE
 2018-Aug-27 15:06 Am  15 31 17.806764 -43 24 19.13949
 2018-Aug-27 15:07 Am  15 31 17.850984 -43 24 19.57117
 2018-Aug-27 15:08 Am  15 31 17.895211 -43 24 20.00325
 2018-Aug-27 15:09 Am  15 31 17.939444 -43 24 20.43573
 2018-Aug-27 15:10 Am  15 31 17.983684 -43 24 20.86861
 2018-Aug-27 15:11 Am  15 31 18.027930 -43 24 21.30189
 2018-Aug-27 15:12 Am  15 31 18.072183 -43 24 21.73557
 2018-Aug-27 15:13 Am  15 31 18.116440 -43 24 22.16965
 2018-Aug-27 15:14 Am  15 31 18.160704 -43 24 22.60412
 2018-Aug-27 15:15 Am  15 31 18.204973 -43 24 23.03900
 2018-Aug-27 15:16 Am  15 31 18.249246 -43 24 23.47428
 2018-Aug-27 15:17 Nm  15 31 18.293525 -43 24 23.90996
 2018-Aug-27 15:18 Nm  15 31 18.337808 -43 24 24.34604
 2018-Aug-27 15:19 Nm  15 31 18.382096 -43 24 24.78253
 2018-Aug-27 15:20 Nm  15 31 18.426388 -43 24 25.21941
 2018-Aug-27 15:21 Nm  15 31 18.470684 -43 24 25.65669
 2018-Aug-27 15:22 Nm  15 31 18.514983 -43 24 26.09438
 2018-Aug-27 15:23 Nm  15 31 18.559286 -43 24 26.53246
 2018-Aug-27 15:24 Nm  15 31 18.603592 -43 24 26.97095
 2018-Aug-27 15:25 Nm  15 31 18.647901 -43 24 27.40984
 2018-Aug-27 15:26 Nm  15 31 18.692213 -43 24 27.84913
 2018-Aug-27 15:27 Nm  15 31 18.736527 -43 24 28.28882
 2018-Aug-27 15:28 Nm  15 31 18.780844 -43 24 28.72892
 2018-Aug-27 15:29 Nm  15 31 18.825163 -43 24 29.16941
 2018-Aug-27 15:30 Nm  15 31 18.869484 -43 24 29.61031
 2018-Aug-27 15:31 Nm  15 31 18.913806 -43 24 30.05160
 2018-Aug-27 15:32 Nm  15 31 18.958130 -43 24 30.49330
 2018-Aug-27 15:33 Nm  15 31 19.002454 -43 24 30.93541
 2018-Aug-27 15:34 Nm  15 31 19.046780 -43 24 31.37791
 2018-Aug-27 15:35 Nm  15 31 19.091107 -43 24 31.82081
 2018-Aug-27 15:36 Nm  15 31 19.135434 -43 24 32.26412
 2018-Aug-27 15:37 Nm  15 31 19.179761 -43 24 32.70783
 2018-Aug-27 15:38 Nm  15 31 19.224088 -43 24 33.15194
 2018-Aug-27 15:39 Nm  15 31 19.268415 -43 24 33.59645
 2018-Aug-27 15:40 Nm  15 31 19.312742 -43 24 34.04136
 2018-Aug-27 15:41 Nm  15 31 19.357068 -43 24 34.48667
 2018-Aug-27 15:42 Nm  15 31 19.401393 -43 24 34.93239
 2018-Aug-27 15:43 Cm  15 31 19.445717 -43 24 35.37850
 2018-Aug-27 15:44 Cm  15 31 19.490039 -43 24 35.82502
 2018-Aug-27 15:45 Cm  15 31 19.534360 -43 24 36.27194
 2018-Aug-27 15:46 Cm  15 31 19.578679 -43 24 36.71926
 2018-Aug-27 15:47 Cm  15 31 19.622996 -43 24 37.16698
 2018-Aug-27 15:48 Cm  15 31 19.667311 -43 24 37.61510
 2018-Aug-27 15:49 Cm  15 31 19.711623 -43 24 38.06362
 2018-Aug-27 15:50 Cm  15 31 19.755933 -43 24 38.51254
 2018-Aug-27 15:51 Cm  15 31 19.800239 -43 24 38.96186
 2018-Aug-27 15:52 Cm  15 31 19.844543 -43 24 39.41158
 2018-Aug-27 15:53 Cm  15 31 19.888843 -43 24 39.86171
 2018-Aug-27 15:54 Cm  15 31 19.933139 -43 24 40.31223
 2018-Aug-27 15:55 Cm  15 31 19.977431 -43 24 40.76315
 2018-Aug-27 15:56 Cm  15 31 20.021719 -43 24 41.21447
